GLOBALSTAR M001 [-]     
1 25162U 98008A   23362.46193793 -.00000114  00000+0 -13581-3 0  9997
2 25162  52.0039  95.3540 0002068 176.7952 263.9939 12.38175242177221
GLOBALSTAR M004 [-]     
1 25163U 98008B   23362.92932938 -.00000015  00000+0  49091-3 0  9995
2 25163  51.9983 250.0876 0002832 160.6980 330.9210 12.63346772193908
GLOBALSTAR M002 [-]     
1 25164U 98008C   23362.85309971 -.00000097  00000+0 -40478-3 0  9994
2 25164  51.9994 144.9566 0001051 181.3200 178.7617 11.61497669121746
GLOBALSTAR M003 [-]     
1 25165U 98008D   23362.83566505  .00000038  00000+0  13608-2 0  9998
2 25165  51.9765 214.0739 0007134 297.8472 147.1657 12.11963950168186
GLOBALSTAR M014 [-]     
1 25306U 98023A   23362.92063505 -.00000066  00000+0  22100-3 0  9994
2 25306  51.9849  79.2851 0001427 112.5230 295.9996 11.65463413128648
GLOBALSTAR M006 [-]     
1 25307U 98023B   23362.66303681 -.00000090  00000+0 -29822-3 0  9994
2 25307  51.9934 112.3567 0003633 208.5620 260.8387 11.58157727154663
GLOBALSTAR M015 [-]     
1 25308U 98023C   23362.84310104 -.00000075  00000+0 -30156-4 0  9999
2 25308  51.9785 185.8035 0012019 193.7897 270.1190 11.48857413132437
GLOBALSTAR M008 [-]     
1 25309U 98023D   23362.86541013 -.00000076  00000+0  15701-3 0  9995
2 25309  51.9987 312.9397 0002694 114.0285 333.3979 12.36033838171526
